PELICAN-1               
1 58296U 23174AS  26190.26373404  .00009237  00000+0  70985-4 0  9997
2 58296  97.3979 291.9778 0001587 140.4897 219.6482 15.72288396149639
PELICAN-2               
1 62631U 25009Y   26190.19335958  .00000009  00000+0  22009-5 0  9991
2 62631  97.2213 280.8272 0002263 130.4618 229.6826 15.40630366 82941
PELICAN-3               
1 65315U 25188A   26191.16651153  .00006031  00000+0  14836-3 0  9995
2 65315  97.1983 266.9739 0001716 106.3850 253.7585 15.40988618 48859
PELICAN-4               
1 65316U 25188B   26191.18393475  .00005927  00000+0  14597-3 0  9995
2 65316  97.1997 267.1461 0000870 109.1636 250.9706 15.40957945 48856
PELICAN-5               
1 66667U 25276B   26191.25002315  .00011717  00000+0  38011-3 0  9992
2 66667  97.4132 266.2135 0002376   9.0145 204.2846 15.32123997  5846
PELICAN-6               
1 66703U 25276AP  26189.77033839  .00003117  00000+0  10639-3 0  9993
2 66703  97.3784 264.7842 0003236  48.6984 311.4536 15.31077896 33835
PELICAN-7               
1 69017U 26100AP  26189.69227648  .00001454  00000+0  63925-4 0  9994
2 69017  97.3907  87.2405 0003314  94.4001 265.7614 15.23481001 10080
PELICAN-9               
1 69019U 26100AR  26191.25002315  .00009391  00000+0  41443-3 0  9991
2 69019  97.3781  88.6197 0001916  20.4396  28.1504 15.21973081  4968
